full_name,a,e,i,om,w,ma,H,epoch_cal,epoch_mjd
"       (2017 FC3)",1.677841024038499,.5397201728786503,6.970365807507381,195.0421441145093,248.4400601624607,22.68336818636681,23.6,20190427.0000000,58600
"       (2017 FC65)",1.860750428834784,.7869168063902571,7.063639634812088,175.2101006772506,253.5241618722712,18.44884693480742,25.7,20170323.0000000,57835
"       (2017 FD1)",1.235869199782229,.1478491067725132,39.40408426758489,356.5398410216393,218.6265251096088,160.7385069981871,21.4,20190427.0000000,58600
"       (2017 FD101)",1.735325359880011,.3160702483178295,35.82280501186455,341.932245617875,133.5341900936915,40.225222479266,20.8,20170324.0000000,57836
"       (2017 FD157)",1.130194927891321,.3971356111670756,8.294681730050241,172.864291276106,263.9094173058873,320.3754463730919,22.3,20190427.0000000,58600
"       (2017 FD3)",2.013108621890377,.5628864173587961,2.622979033211873,178.1706350468651,311.3919565267805,277.8210048523079,27.7,20190427.0000000,58600
"       (2017 FD65)",1.503066716054447,.2523970212408022,10.01302494049615,186.7494424086273,55.95989655484959,13.61966545696052,22.6,20190427.0000000,58600
"       (2017 FE1)",2.429063883775028,.6233472416915686,3.086714111882817,60.3186252952254,201.5680985453319,177.4895524474197,20.1,20190427.0000000,58600
"       (2017 FE101)",1.474029429238511,.4056915685684947,53.56946822526703,187.6374163890088,222.4424819594185,155.2837480883094,19.1,20190427.0000000,58600
"       (2017 FE128)",1.567151087853649,.4100546906467722,24.05848975916694,26.32423460834049,260.595528129565,331.4931570334546,21.9,20190427.0000000,58600
"       (2017 FE157)",1.723017823855296,.4408951507159216,5.226291220618325,68.77784105737005,178.4433952121364,307.1668970049877,23.8,20190427.0000000,58600
"       (2017 FE3)",1.464212296315042,.3394450603393864,10.75050098990837,187.0904868201093,59.61681524877182,34.26297277865646,23.2,20190427.0000000,58600
"       (2017 FE63)",1.373186428811152,.1815821804123272,26.90456184208161,171.5872786641548,58.21706253409548,324.260144214675,23.4,20170322.0000000,57834
"       (2017 FE65)",1.334941534823911,.3582113334569961,22.92018159835234,183.8585272511711,237.5506819339824,222.0198503440414,20.6,20190427.0000000,58600
"       (2017 FE90)",2.025311781654256,.7823590226625446,25.78856194691864,15.48615777771048,308.3529714825353,215.4983822842647,19.5,20190427.0000000,58600
"       (2017 FF1)",2.393801741609278,.6204345029355254,1.415848277868253,178.0082759502549,303.0449590250576,12.03485758007755,26.0,20170319.0000000,57831
"       (2017 FF101)",1.297646593032141,.1204184278991412,12.20643909202892,20.96062602883797,193.0795778038348,124.2743235054302,24.1,20190427.0000000,58600
"       (2017 FF128)",2.158453531108266,.5740536273486793,6.693075908501886,20.22456058364601,220.4545793829168,222.155903469438,25.4,20190427.0000000,58600
"       (2017 FF3)",1.145351297631372,.1356217321795499,2.564332931828339,168.9751327076236,40.94364024124223,233.6677902934815,27.0,20190427.0000000,58600
"       (2017 FF65)",1.433584131172876,.5171212612095997,37.90064560952557,166.156198582403,124.6998891529774,314.2550127949801,21.0,20170321.0000000,57833
"       (2017 FF90)",1.758504269165343,.3826557154038101,13.03768503761086,6.76658388891161,172.6881627936704,1.66506019224688,25.5,20170324.0000000,57836
"       (2017 FG1)",.9330307634633754,.2724426867725898,17.52084074733688,356.7542214187074,48.19637152194615,227.8632803150023,25.7,20190427.0000000,58600
"       (2017 FG101)",2.043884030182453,.4831012700277519,7.994593440265501,189.4069268629198,349.0450764036028,3.175446002634837,26.2,20170330.0000000,57842
"       (2017 FG128)",1.449286255191706,.2686255981413193,30.48008450837731,28.27939064746784,216.278602491213,35.82183404783931,22.2,20190427.0000000,58600
"       (2017 FG3)",1.39053587598529,.3611756344137576,3.863874080467899,340.3318086206406,294.2602118919218,43.42035830746669,23.1,20190427.0000000,58600
"       (2017 FG63)",2.845992983601994,.6445977076466373,17.81778191767464,165.2331829360546,324.8450001324471,8.091684047869562,22.6,20170322.0000000,57834
"       (2017 FH)",1.486573756311497,.585762448106082,4.63100306337013,95.29871248865126,341.2445464407389,33.1396393921114,22.2,20170318.0000000,57830
"       (2017 FH1)",2.259124863842989,.5841110241360098,3.167018239860215,309.7726182533837,284.2915608984786,208.9708669314934,23.8,20190427.0000000,58600
"       (2017 FH101)",1.786459513690785,.4594804565681432,9.249186289873437,199.4741215637176,51.24584167490648,289.6592959691243,22.5,20190427.0000000,58600
"       (2017 FH128)",.8741555554886299,.3837969950798439,10.86905706768103,100.2965477440062,257.1852824784969,41.82849062520789,21.6,20190427.0000000,58600
"       (2017 FH3)",1.194040380693183,.66915503611145,12.36797091858731,2.284799709280971,307.4648108342258,313.3155509822237,22.7,20170326.0000000,57838
"       (2017 FH63)",1.397461770891208,.2518795656107389,9.046356953332982,3.586515388161949,228.4266257258251,66.12913053545672,25.1,20190427.0000000,58600
"       (2017 FH90)",1.662671134592842,.3315338173352237,33.18966888799531,182.8345513466199,84.02804120136035,311.651035299779,20.7,20190427.0000000,58600
"       (2017 FJ)",1.560522484616303,.4121436107053972,3.308264761268138,177.7557465652108,47.23056912347473,9.769729403148004,28.2,20190427.0000000,58600
"       (2017 FJ1)",1.929930028311931,.5312599770526596,26.97287823295991,1.917404895474286,246.8421270119374,339.045082064524,23.3,20170322.0000000,57834
"       (2017 FJ101)",1.039284781074037,.3334083761187402,7.100809165629506,188.5691583902546,104.1167354167892,280.4295165539709,28.3,20190427.0000000,58600
"       (2017 FJ128)",1.553149673900721,.5086774949142824,1.809182794221665,307.0001483959135,158.6589970124232,59.98900250857972,22.7,20190427.0000000,58600
"       (2017 FJ3)",1.13321056927783,.1181473274663128,.9623567369078324,167.3014609020906,26.70444447902232,256.0597370777634,29.9,20190427.0000000,58600
"       (2017 FJ63)",1.878098870122293,.3842960428360265,5.453895710482541,25.21932909224624,148.135115907781,297.8043528784781,24.3,20190427.0000000,58600
"       (2017 FJ90)",1.70314627997637,.441383355216289,30.79020709649686,191.0928313876007,121.0638833322235,272.0251180290762,19.1,20190427.0000000,58600
"       (2017 FK)",1.263229878719804,.3379440267797774,4.328396554085944,176.5205532768526,72.1227516943848,136.4824339433798,27.4,20190427.0000000,58600
"       (2017 FK1)",2.048830011698927,.4343931928112023,8.438785960593806,188.7724412860465,295.0601268589442,19.88950925682376,23.3,20170319.0000000,57831
"       (2017 FK101)",1.605169190617143,.3051275668305797,11.38439468637056,347.9769560037167,251.6663448717489,341.1245605763276,22.7,20190427.0000000,58600
"       (2017 FK102)",1.121583186491621,.1752902108009627,37.88730045124579,139.9836340423122,216.8896728217836,151.6157045997032,20.4,20170320.0000000,57832
"       (2017 FK128)",2.024057349192618,.4597249496476845,5.190924425808014,209.790438368914,312.9821728376562,270.2999882733609,23.0,20190427.0000000,58600
"       (2017 FK3)",1.636783148399703,.4255484432614398,1.920405433696476,153.6455114202325,72.87593374220283,342.43915783119,26.2,20170322.0000000,57834
"       (2017 FK63)",1.259349799650252,.169001869604074,7.660688027046917,185.9847888543355,358.9653447653063,169.8700891979983,24.8,20190427.0000000,58600
"       (2017 FK90)",2.456595181827593,.6058939917402606,3.460315587357918,161.7355603746923,329.6517717291937,204.8199744961925,22.6,20190427.0000000,58600
"       (2017 FK91)",2.541371564355747,.7227262479215936,12.58572344906302,321.9137880826371,133.8209883607914,200.7997007373379,20.9,20190427.0000000,58600
"       (2017 FL1)",2.009501031406671,.4832650195882939,7.280631977877818,179.0832040038795,354.1496019115651,267.3400727560252,24.5,20190427.0000000,58600
"       (2017 FL101)",2.839067085274083,.7861139513214487,4.615384898252428,184.3238630509134,276.9461032246439,165.9776070670497,25.6,20190427.0000000,58600
"       (2017 FL102)",1.632812820684439,.7199404128665589,20.10408971737041,355.4700842112769,321.4978859918325,321.4791427399334,21.2,20190427.0000000,58600
"       (2017 FL127)",2.510398521343621,.6057014141088587,22.44499720639311,155.6935497686412,333.0115323224406,198.4838977665679,22.9,20190427.0000000,58600
"       (2017 FL128)",.9111552931909748,.3174504233416083,17.8987484794078,8.97988384049345,28.43128892626054,277.9492558136643,22.3,20190427.0000000,58600
"       (2017 FL63)",2.698791462619402,.7125125643753496,5.549649923499634,189.2691764981246,58.40098577519861,160.4719948906687,26.0,20190427.0000000,58600
"       (2017 FL64)",1.126893103662517,.1332779589323086,2.325296264122303,165.3271202260518,323.1199605413742,312.2371951943009,28.5,20190427.0000000,58600
"       (2017 FL90)",2.494205465613966,.8438879561842667,14.87191861337848,154.004038673374,162.4674096822759,170.5852292979345,20.3,20190427.0000000,58600
"       (2017 FL91)",1.696056970163974,.2554310146005262,13.91885436670741,21.81747935710985,211.4393106909954,303.4359261401938,20.9,20190427.0000000,58600
"       (2017 FM1)",1.299042712872149,.3298482878443126,9.411372306593302,359.9706819045249,240.9061948980418,118.9055236944076,29.5,20190427.0000000,58600
"       (2017 FM101)",1.464935383349468,.3722056502529712,1.380191180888201,189.1513475531324,53.92531668733966,36.75367421857668,26.6,20190427.0000000,58600
"       (2017 FM102)",1.289737555998709,.8142593922955935,29.13696951641273,17.62121592113546,306.1570285488905,319.570835152453,22.0,20170329.0000000,57841
"       (2017 FM127)",.9713014519922636,.1582749114781383,11.68909872211263,180.9668681017513,226.3193731934874,188.0373282425844,25.6,20190427.0000000,58600
"       (2017 FM128)",2.333817254656837,.572463384824664,3.639863928813336,176.8588112682503,341.9314982998142,214.6933406280736,22.3,20190427.0000000,58600
